NORAD_CAT_ID,OBJECT_NAME,OBJECT_TYPE,EPOCH,MEAN_MOTION,ECCENTRICITY,INCLINATION,RA_OF_ASC_NODE,ARG_OF_PERICENTER,MEAN_ANOMALY,BSTAR,MEAN_MOTION_DOT,MEAN_MOTION_DDOT,TLE_LINE0,TLE_LINE1,TLE_LINE2,SEMIMAJOR_AXIS,PERIOD,APOGEE,PERIGEE,DECAYED
44767,STARLINK-1062,PAYLOAD,2021-10-18 12:39:59,15.06398438,0.0001609,53.0538,223.4919,80.9006,279.2165,3.6013e-05,2.55e-06,0.0,0 STARLINK-1062,1 44767U 19074BG  21291.52776967  .00000255  00000-0  36013-4 0  9992,2 44767  53.0538 223.4919 0001609  80.9006 279.2165 15.06398438106560,6925.353,95.592,548.3330000000002,546.104,0.0
44767,STARLINK-1062,PAYLOAD,2021-10-18 22:13:13,15.06398737,0.0001604,53.0538,221.7045,80.985,279.1321,7.6479e-05,8.58e-06,0.0,0 STARLINK-1062,1 44767U 19074BG  21291.92584901  .00000858  00000-0  76479-4 0  9990,2 44767  53.0538 221.7045 0001604  80.9850 279.1321 15.06398737106625,6925.352,95.592,548.328,546.107,0.0
44767,STARLINK-1062,PAYLOAD,2021-10-19 01:24:17,15.06397481,0.0001626999999999,53.0538,221.1091,80.8483,279.269,0.000154,2.013e-05,0.0,0 STARLINK-1062,1 44767U 19074BG  21292.05854091  .00002013  00000-0  15400-3 0  9996,2 44767  53.0538 221.1091 0001627  80.8483 279.2690 15.06397481106812,6925.356,95.592,548.3480000000002,546.095,0.0
44767,STARLINK-1062,PAYLOAD,2021-10-19 12:33:04,15.06401779,0.0001641999999999,53.0538,219.0241,80.8664,279.2511,0.00016284,2.145e-05,0.0,0 STARLINK-1062,1 44767U 19074BG  21292.52296531  .00002145  00000-0  16284-3 0  9994,2 44767  53.0538 219.0241 0001642  80.8664 279.2511 15.06401779106710,6925.343000000003,95.592,548.345,546.071,0.0
44767,STARLINK-1062,PAYLOAD,2021-10-20 01:17:23,15.063940400000002,0.0001629,53.0537,216.6414,82.7984,277.319,3.0313000000000013e-05,1.7e-06,0.0,0 STARLINK-1062,1 44767U 19074BG  21293.05374879  .00000170  00000-0  30313-4 0  9991,2 44767  53.0537 216.6414 0001629  82.7984 277.3190 15.06394040106966,6925.3669999999975,95.593,548.36,546.104,0.0
44767,STARLINK-1062,PAYLOAD,2021-10-20 12:26:10,15.06396515,0.0001629,53.0537,214.5565,82.6386,277.4788,2.0837e-05,2.9e-07,0.0,0 STARLINK-1062,1 44767U 19074BG  21293.51817550  .00000029  00000-0  20837-4 0  9993,2 44767  53.0537 214.5565 0001629  82.6386 277.4788 15.06396515106867,6925.359,95.592,548.352,546.096,0.0
44767,STARLINK-1062,PAYLOAD,2021-10-20 21:59:24,15.0640105,0.000164,53.0537,212.7693,83.3979,276.7196,1.8628e-05,-4e-08,0.0,0 STARLINK-1062,1 44767U 19074BG  21293.91625295 -.00000004  00000-0  18628-4 0  9999,2 44767  53.0537 212.7693 0001640  83.3979 276.7196 15.06401050106921,6925.345,95.592,548.346,546.075,0.0
44767,STARLINK-1062,PAYLOAD,2021-10-21 01:10:28,15.06403961,0.0001638,53.0537,212.1736,83.4768,276.6407,-2.538e-06,-3.19e-06,0.0,0 STARLINK-1062,1 44767U 19074BG  21294.04894507 -.00000319  00000-0 -25380-5 0  9992,2 44767  53.0537 212.1736 0001638  83.4768 276.6407 15.06403961107116,6925.3359999999975,95.592,548.336,546.067,0.0
44767,STARLINK-1062,PAYLOAD,2021-10-21 04:21:33,15.06400298,0.0001648,53.0537,211.5779,83.4248,276.6928,-3.3905e-05,-7.87e-06,0.0,0 STARLINK-1062,1 44767U 19074BG  21294.18164147 -.00000787  00000-0 -33905-4 0  9997,2 44767  53.0537 211.5779 0001648  83.4248 276.6928 15.06400298106960,6925.348000000001,95.592,548.354,546.071,0.0
44767,STARLINK-1062,PAYLOAD,2021-10-21 21:52:31,15.06384159,0.0001626999999999,53.0537,208.3019,81.9826,278.1348,-9.6156e-05,-1.713e-05,0.0,0 STARLINK-1062,1 44767U 19074BG  21294.91147070 -.00001713  00000-0 -96156-4 0  9991,2 44767  53.0537 208.3019 0001627  81.9826 278.1348 15.06384159107076,6925.397,95.593,548.389,546.135,0.0
44767,STARLINK-1062,PAYLOAD,2021-10-22 01:03:35,15.06383605,0.0001688,53.0538,207.7061,80.3085,279.8095,-2.8181e-05,-7.01e-06,0.0,0 STARLINK-1062,1 44767U 19074BG  21295.04416364 -.00000701  00000-0 -28181-4 0  9990,2 44767  53.0538 207.7061 0001688  80.3085 279.8095 15.06383605107267,6925.399,95.593,548.433,546.095,0.0
44767,STARLINK-1062,PAYLOAD,2021-10-22 04:14:40,15.063857,0.0001678,53.0538,207.1104,80.134,279.9839,-1.0345e-05,-4.36e-06,0.0,0 STARLINK-1062,1 44767U 19074BG  21295.17685651 -.00000436  00000-0 -10345-4 0  9999,2 44767  53.0538 207.1104 0001678  80.1340 279.9839 15.06385700107119,6925.392,95.593,548.419,546.095,0.0
44767,STARLINK-1062,PAYLOAD,2021-10-23 02:32:13,15.06391536,0.0001734,53.0539,202.9404,77.9261,282.1922,1.5827e-07,-2.79e-06,0.0,0 STARLINK-1062,1 44767U 19074BG  21296.10571397 -.00000279  00000-0  15827-6 0  9990,2 44767  53.0539 202.9404 0001734  77.9261 282.1922 15.06391536107422,6925.374,95.593,548.44,546.039,0.0
44767,STARLINK-1062,PAYLOAD,2021-10-23 04:07:46,15.06392069,0.0001735,53.0539,202.6426,78.6728,281.4456,6.1428e-06,-1.9e-06,0.0,0 STARLINK-1062,1 44767U 19074BG  21296.17206070 -.00000190  00000-0  61428-5 0  9999,2 44767  53.0539 202.6426 0001735  78.6728 281.4456 15.06392069107268,6925.373000000001,95.593,548.439,546.036,0.0
44767,STARLINK-1062,PAYLOAD,2021-10-23 10:29:55,15.06392613,0.0001718,53.0539,201.4513,79.1389,280.9793,2.8632e-05,1.45e-06,0.0,0 STARLINK-1062,1 44767U 19074BG  21296.43744815  .00000145  00000-0  28632-4 0  9990,2 44767  53.0539 201.4513 0001718  79.1389 280.9793 15.06392613107300,6925.371,95.593,548.4259999999998,546.0459999999998,0.0
44767,STARLINK-1062,PAYLOAD,2021-10-24 05:36:24,15.06393294,0.0001691,53.0538,197.8771,80.751,279.367,0.00010737,1.318e-05,0.0,0 STARLINK-1062,1 44767U 19074BG  21297.23361130  .00001318  00000-0  10737-3 0  9993,2 44767  53.0538 197.8771 0001691  80.7510 279.3670 15.06393294107590,6925.369000000002,95.593,548.405,546.063,0.0
44767,STARLINK-1062,PAYLOAD,2021-10-24 10:23:00,15.06396007,0.0001695,53.0538,196.9836,80.7391,279.379,0.00011269,1.397e-05,0.0,0 STARLINK-1062,1 44767U 19074BG  21297.43265041  .00001397  00000-0  11269-3 0  9997,2 44767  53.0538 196.9836 0001695  80.7391 279.3790 15.06396007107456,6925.361,95.592,548.4,546.052,0.0
44767,STARLINK-1062,PAYLOAD,2021-10-24 19:56:15,15.06399851,0.0001696,53.0538,195.1965,81.7245,278.3937,9.3901e-05,1.117e-05,0.0,0 STARLINK-1062,1 44767U 19074BG  21297.83072974  .00001117  00000-0  93901-4 0  9996,2 44767  53.0538 195.1965 0001696  81.7245 278.3937 15.06399851107519,6925.349,95.592,548.389,546.039,0.0
44767,STARLINK-1062,PAYLOAD,2021-10-25 02:18:24,15.06402925,0.0001717,53.0537,194.0052,81.4637,278.6546,0.00011528,1.436e-05,0.0,0 STARLINK-1062,1 44767U 19074BG  21298.09611396  .00001436  00000-0  11528-3 0  9990,2 44767  53.0537 194.0052 0001717  81.4637 278.6546 15.06402925107728,6925.34,95.592,548.394,546.016,0.0
44767,STARLINK-1062,PAYLOAD,2021-10-26 00:35:57,15.06397985,0.0001724,53.0537,189.8353,83.3913,276.7273,-2.9462e-06,-3.25e-06,0.0,0 STARLINK-1062,1 44767U 19074BG  21299.02497315 -.00000325  00000-0 -29462-5 0  9993,2 44767  53.0537 189.8353 0001724  83.3913 276.7273 15.06397985107860,6925.355,95.592,548.414,546.026,0.0
44767,STARLINK-1062,PAYLOAD,2021-10-26 10:09:11,15.06400586,0.0001733,53.0538,188.0483,83.338,276.7807,1.7844e-05,-1.6e-07,0.0,0 STARLINK-1062,1 44767U 19074BG  21299.42305137 -.00000016  00000-0  17844-4 0  9993,2 44767  53.0538 188.0483 0001733  83.3380 276.7807 15.06400586107757,6925.347,95.592,548.4119999999998,546.012,0.0
44767,STARLINK-1062,PAYLOAD,2021-10-26 22:53:30,15.06406523,0.0001735,53.0537,185.6654,84.0289,276.0898,1.405e-05,-7.2e-07,0.0,0 STARLINK-1062,1 44767U 19074BG  21299.95382014 -.00000072  00000-0  14050-4 0  9998,2 44767  53.0537 185.6654 0001735  84.0289 276.0898 15.06406523108006,6925.329000000002,95.592,548.395,545.992,0.0
44767,STARLINK-1062,PAYLOAD,2021-10-27 03:40:06,15.06407757,0.0001733,53.0536,184.7719,84.0574,276.0613,2.476e-05,8.7e-07,0.0,0 STARLINK-1062,1 44767U 19074BG  21300.15285846  .00000087  00000-0  24760-4 0  9992,2 44767  53.0536 184.7719 0001733  84.0574 276.0613 15.06407757107860,6925.325,95.592,548.39,545.99,0.0
44767,STARLINK-1062,PAYLOAD,2021-10-28 00:22:08,15.06393633,0.0001706999999999,53.0538,180.8998,84.2603,275.8581,5.8825e-06,-1.94e-06,0.0,0 STARLINK-1062,1 44767U 19074BG  21301.01537408 -.00000194  00000-0  58825-5 0  9992,2 44767  53.0538 180.8998 0001707  84.2603 275.8581 15.06393633108166,6925.368,95.593,548.415,546.0509999999998,0.0
44767,STARLINK-1062,PAYLOAD,2021-10-28 03:33:12,15.06395252,0.0001716,53.0538,180.305,89.3415,270.777,1.7153e-05,-2.6e-07,0.0,0 STARLINK-1062,1 44767U 19074BG  21301.14806664 -.00000026  00000-0  17153-4 0  9991,2 44767  53.0538 180.3050 0001716  89.3415 270.7770 15.06395252108014,6925.363,95.592,548.4169999999998,546.04,0.0
44767,STARLINK-1062,PAYLOAD,2021-10-28 21:04:08,15.06400793,0.000171,53.0536,177.028,84.4222,275.6962,2.4243e-05,8e-07,0.0,0 STARLINK-1062,1 44767U 19074BG  21301.87787849  .00000080  00000-0  24243-4 0  9991,2 44767  53.0536 177.0280 0001710  84.4222 275.6962 15.06400793108122,6925.346,95.592,548.395,546.0269999999998,0.0
44767,STARLINK-1062,PAYLOAD,2021-10-29 01:50:46,15.06398848,0.0001733,53.0536,176.1343,79.4678,280.6506,-2.0458e-05,-5.86e-06,0.0,0 STARLINK-1062,1 44767U 19074BG  21302.07692175 -.00000586  00000-0 -20458-4 0  9998,2 44767  53.0536 176.1343 0001733  79.4678 280.6506 15.06398848108325,6925.352,95.592,548.4169999999998,546.0169999999998,0.0
44767,STARLINK-1062,PAYLOAD,2021-10-29 08:12:56,15.06390176,0.0001712,53.0535,174.9426,85.6013,274.5172,-8.99e-05,-1.62e-05,0.0,0 STARLINK-1062,1 44767U 19074BG  21302.34231777 -.00001620  00000-0 -89900-4 0  9992,2 44767  53.0535 174.9426 0001712  85.6013 274.5172 15.06390176108362,6925.379,95.593,548.429,546.058,0.0
44767,STARLINK-1062,PAYLOAD,2021-10-29 20:57:15,15.06388612,0.0001737,53.053,172.5592,93.7102,266.4085,2.5117e-05,9.2e-07,0.0,0 STARLINK-1062,1 44767U 19074BG  21302.87309197  .00000092  00000-0  25117-4 0  9992,2 44767  53.0530 172.5592 0001737  93.7102 266.4085 15.06388612108276,6925.3830000000025,95.593,548.451,546.0459999999998,0.0
